{
  "norad_id": 66408,
  "name": "STARLINK-35679",
  "history": [
    {
      "epoch": "2026-03-28T10:21:39.882240Z",
      "apogee_km": 476.38879022802485,
      "perigee_km": 474.0367205919674,
      "latitude_deg": 5.429959535255555e-05,
      "longitude_deg": 148.6383143412914,
      "height_km": 476.0885281876181,
      "semi_major_axis_km": 6853.349755409996,
      "eccentricity": 0.0001716,
      "inclination_deg": 53.1604,
      "raan_deg": 129.9067,
      "arg_perigee_deg": 88.9421,
      "mean_anomaly_deg": 271.1777,
      "mean_motion_rev_day": 15.30200775
    },
    {
      "epoch": "2026-03-30T01:33:00.144864Z",
      "apogee_km": 476.7466628678303,
      "perigee_km": 473.599622850229,
      "latitude_deg": 2.0610261508524766e-05,
      "longitude_deg": -88.38707146979795,
      "height_km": 476.0385098111115,
      "semi_major_axis_km": 6853.31014285903,
      "eccentricity": 0.0002296,
      "inclination_deg": 53.1581,
      "raan_deg": 122.3252,
      "arg_perigee_deg": 88.8701,
      "mean_anomaly_deg": 271.2563,
      "mean_motion_rev_day": 15.30214042
    },
    {
      "epoch": "2026-03-30T06:15:09.681408Z",
      "apogee_km": 476.28800564461653,
      "perigee_km": 474.1468806494886,
      "latitude_deg": -5.451564964565258e-05,
      "longitude_deg": -160.03239375173337,
      "height_km": 476.1361580975941,
      "semi_major_axis_km": 6853.354443147052,
      "eccentricity": 0.00015621,
      "inclination_deg": 53.1587,
      "raan_deg": 121.4128,
      "arg_perigee_deg": 91.1335,
      "mean_anomaly_deg": 268.9844,
      "mean_motion_rev_day": 15.30199205
    },
    {
      "epoch": "2026-03-30T12:31:22.615392Z",
      "apogee_km": 476.4745498564689,
      "perigee_km": 473.93524961577896,
      "latitude_deg": 2.410164591820262e-05,
      "longitude_deg": 104.44536312157406,
      "height_km": 475.85008862093554,
      "semi_major_axis_km": 6853.341899736123,
      "eccentricity": 0.00018526,
      "inclination_deg": 53.1581,
      "raan_deg": 120.2019,
      "arg_perigee_deg": 78.5558,
      "mean_anomaly_deg": 281.5651,
      "mean_motion_rev_day": 15.30203406
    },
    {
      "epoch": "2026-03-30T18:47:35.464704Z",
      "apogee_km": 476.65452965539225,
      "perigee_km": 473.7359695835694,
      "latitude_deg": -5.2436463914515754e-05,
      "longitude_deg": 8.918658156167998,
      "height_km": 476.0663609203907,
      "semi_major_axis_km": 6853.3322496194805,
      "eccentricity": 0.00021293,
      "inclination_deg": 53.1579,
      "raan_deg": 118.9863,
      "arg_perigee_deg": 88.9979,
      "mean_anomaly_deg": 271.1265,
      "mean_motion_rev_day": 15.30206638
    }
  ]
}